{"type": "FeatureCollection", "features": [ {"type": "Feature", "properties": {"norad_id": 66353, "name": "STARLINK-35869", "group": "last-30-days", "lat": -8.586785478927368, "lon": 152.92896019574673, "alt_km": 366.805073884354, "timestamp": "2025-12-02T08:59:31.502118+00:00", "meta": {"OBJECT_NAME": "STARLINK-35869", "OBJECT_ID": "2025-254F", "EPOCH": "2025-12-02T04:00:03.998880", "MEAN_MOTION": 15.68920313, "ECCENTRICITY": 0.0001287, "INCLINATION": 53.1589, "RA_OF_ASC_NODE": 327.4519, "ARG_OF_PERICENTER": 78.4385, "MEAN_ANOMALY": 17.3087, "EPHEMERIS_TYPE": 0, "CLASSIFICATION_TYPE": "U", "NORAD_CAT_ID": 66353, "ELEMENT_SET_NO": 999, "REV_AT_EPOCH": 522, "BSTAR": -0.019693, "MEAN_MOTION_DOT": -0.02031428, "MEAN_MOTION_DDOT": 0}, "tle": {"line1": "1 66353U 25254F   25336.16671295 -.02031428  00000+0 -19693-1 0  9997", "line2": "2 66353  53.1589 327.4519 0001287  78.4385  17.3087 15.68920313  5223"}}, "geometry": {"type": "Point", "coordinates": [152.92896019574673, -8.586785478927368]}}, {"type": "Feature", "properties": {"norad_id": 66354, "name": "STARLINK-35895", "group": "last-30-days", "lat": 51.72468448484015, "lon": 38.49147063463586, "alt_km": 395.8002544630026, "timestamp": "2025-12-02T08:59:31.502130+00:00", "meta": {"OBJECT_NAME": "STARLINK-35895", "OBJECT_ID": "2025-254G", "EPOCH": "2025-12-02T04:00:03.998880", "MEAN_MOTION": 15.55616031, "ECCENTRICITY": 0.0001147, "INCLINATION": 53.1594, "RA_OF_ASC_NODE": 327.6572, "ARG_OF_PERICENTER": 94.4695, "MEAN_ANOMALY": 259.581, "EPHEMERIS_TYPE": 0, "CLASSIFICATION_TYPE": "U", "NORAD_CAT_ID": 66354, "ELEMENT_SET_NO": 999, "REV_AT_EPOCH": 522, "BSTAR": -0.040688, "MEAN_MOTION_DOT": -0.02471493, "MEAN_MOTION_DDOT": 0}, "tle": {"line1": "1 66354U 25254G   25336.16671295 -.02471493  00000+0 -40688-1 0  9996", "line2": "2 66354  53.1594 327.6572 0001147  94.4695 259.5810 15.55616031  5227"}}, "geometry": {"type": "Point", "coordinates": [38.49147063463586, 51.72468448484015]}}, {"type": "Feature", "properties": {"norad_id": 66355, "name": "STARLINK-35861", "group": "last-30-days", "lat": -11.624578789954938, "lon": 155.29305946814614, "alt_km": 367.1635608117176, "timestamp": "2025-12-02T08:59:31.502141+00:00", "meta": {"OBJECT_NAME": "STARLINK-35861", "OBJECT_ID": "2025-254H", "EPOCH": "2025-12-02T04:00:03.998880", "MEAN_MOTION": 15.68909634, "ECCENTRICITY": 0.0001268, "INCLINATION": 53.1591, "RA_OF_ASC_NODE": 327.444, "ARG_OF_PERICENTER": 81.0939, "MEAN_ANOMALY": 18.4911, "EPHEMERIS_TYPE": 0, "CLASSIFICATION_TYPE": "U", "NORAD_CAT_ID": 66355, "ELEMENT_SET_NO": 999, "REV_AT_EPOCH": 522, "BSTAR": -0.019536, "MEAN_MOTION_DOT": -0.0201644, "MEAN_MOTION_DDOT": 0}, "tle": {"line1": "1 66355U 25254H   25336.16671295 -.02016440  00000+0 -19536-1 0  9992", "line2": "2 66355  53.1591 327.4440 0001268  81.0939  18.4911 15.68909634  5226"}}, "geometry": {"type": "Point", "coordinates": [155.29305946814614, -11.624578789954938]}}, {"type": "Feature", "properties": {"norad_id": 66356, "name": "STARLINK-35851", "group": "last-30-days", "lat": -13.135893560810299, "lon": 156.49273039409684, "alt_km": 367.2918663373175, "timestamp": "2025-12-02T08:59:31.502151+00:00", "meta": {"OBJECT_NAME": "STARLINK-35851", "OBJECT_ID": "2025-254J", "EPOCH": "2025-12-02T04:00:03.998880", "MEAN_MOTION": 15.68910575, "ECCENTRICITY": 0.0001249, "INCLINATION": 53.159, "RA_OF_ASC_NODE": 327.4394, "ARG_OF_PERICENTER": 84.9467, "MEAN_ANOMALY": 16.5534, "EPHEMERIS_TYPE": 0, "CLASSIFICATION_TYPE": "U", "NORAD_CAT_ID": 66356, "ELEMENT_SET_NO": 999, "REV_AT_EPOCH": 522, "BSTAR": -0.019535, "MEAN_MOTION_DOT": -0.02016344, "MEAN_MOTION_DDOT": 0}, "tle": {"line1": "1 66356U 25254J   25336.16671295 -.02016344  00000+0 -19535-1 0  9995", "line2": "2 66356  53.1590 327.4394 0001249  84.9467  16.5534 15.68910575  5227"}}, "geometry": {"type": "Point", "coordinates": [156.49273039409684, -13.135893560810299]}}, {"type": "Feature", "properties": {"norad_id": 66357, "name": "STARLINK-35817", "group": "last-30-days", "lat": -14.643428351377832, "lon": 157.70936932554483, "alt_km": 367.49297868773283, "timestamp": "2025-12-02T08:59:31.502164+00:00", "meta": {"OBJECT_NAME": "STARLINK-35817", "OBJECT_ID": "2025-254K", "EPOCH": "2025-12-02T04:00:03.998880", "MEAN_MOTION": 15.68911207, "ECCENTRICITY": 0.0001294, "INCLINATION": 53.1591, "RA_OF_ASC_NODE": 327.4354, "ARG_OF_PERICENTER": 84.3141, "MEAN_ANOMALY": 19.1039, "EPHEMERIS_TYPE": 0, "CLASSIFICATION_TYPE": "U", "NORAD_CAT_ID": 66357, "ELEMENT_SET_NO": 999, "REV_AT_EPOCH": 522, "BSTAR": -0.019557, "MEAN_MOTION_DOT": -0.02018459, "MEAN_MOTION_DDOT": 0}, "tle": {"line1": "1 66357U 25254K   25336.16671295 -.02018459  00000+0 -19557-1 0  9999", "line2": "2 66357  53.1591 327.4354 0001294  84.3141  19.1039 15.68911207  5220"}}, "geometry": {"type": "Point", "coordinates": [157.70936932554483, -14.643428351377832]}}, {"type": "Feature", "properties": {"norad_id": 66358, "name": "STARLINK-35807", "group": "last-30-days", "lat": -16.142179668678587, "lon": 158.94060730459526, "alt_km": 367.52965270703135, "timestamp": "2025-12-02T08:59:31.502174+00:00", "meta": {"OBJECT_NAME": "STARLINK-35807", "OBJECT_ID": "2025-254L", "EPOCH": "2025-12-02T04:00:03.998880", "MEAN_MOTION": 15.68914074, "ECCENTRICITY": 0.0001141, "INCLINATION": 53.159, "RA_OF_ASC_NODE": 327.431, "ARG_OF_PERICENTER": 92.0402, "MEAN_ANOMALY": 13.2932, "EPHEMERIS_TYPE": 0, "CLASSIFICATION_TYPE": "U", "NORAD_CAT_ID": 66358, "ELEMENT_SET_NO": 999, "REV_AT_EPOCH": 522, "BSTAR": -0.019604, "MEAN_MOTION_DOT": -0.02022774, "MEAN_MOTION_DDOT": 0}, "tle": {"line1": "1 66358U 25254L   25336.16671295 -.02022774  00000+0 -19604-1 0  9998", "line2": "2 66358  53.1590 327.4310 0001141  92.0402  13.2932 15.68914074  5221"}}, "geometry": {"type": "Point", "coordinates": [158.94060730459526, -16.142179668678587]}}, {"type": "Feature", "properties": {"norad_id": 66359, "name": "STARLINK-35805", "group": "last-30-days", "lat": -17.635060474429128, "lon": 160.19256613751946, "alt_km": 367.86062162272265, "timestamp": "2025-12-02T08:59:31.502184+00:00", "meta": {"OBJECT_NAME": "STARLINK-35805", "OBJECT_ID": "2025-254M", "EPOCH": "2025-12-02T04:00:03.998880", "MEAN_MOTION": 15.68916124, "ECCENTRICITY": 0.0001312, "INCLINATION": 53.159, "RA_OF_ASC_NODE": 327.4274, "ARG_OF_PERICENTER": 82.257, "MEAN_ANOMALY": 24.9916, "EPHEMERIS_TYPE": 0, "CLASSIFICATION_TYPE": "U", "NORAD_CAT_ID": 66359, "ELEMENT_SET_NO": 999, "REV_AT_EPOCH": 519, "BSTAR": -0.01962, "MEAN_MOTION_DOT": -0.02024551, "MEAN_MOTION_DDOT": 0}, "tle": {"line1": "1 66359U 25254M   25336.16671295 -.02024551  00000+0 -19620-1 0  9992", "line2": "2 66359  53.1590 327.4274 0001312  82.2570  24.9916 15.68916124  5193"}}, "geometry": {"type": "Point", "coordinates": [160.19256613751946, -17.635060474429128]}}, {"type": "Feature", "properties": {"norad_id": 66360, "name": "STARLINK-35823", "group": "last-30-days", "lat": -20.59714475163144, "lon": 162.761091421535, "alt_km": 368.17017855853464, "timestamp": "2025-12-02T08:59:31.502194+00:00", "meta": {"OBJECT_NAME": "STARLINK-35823", "OBJECT_ID": "2025-254N", "EPOCH": "2025-12-02T04:00:03.998880", "MEAN_MOTION": 15.68907826, "ECCENTRICITY": 0.0001351, "INCLINATION": 53.159, "RA_OF_ASC_NODE": 327.4186, "ARG_OF_PERICENTER": 85.0514, "MEAN_ANOMALY": 26.0385, "EPHEMERIS_TYPE": 0, "CLASSIFICATION_TYPE": "U", "NORAD_CAT_ID": 66360, "ELEMENT_SET_NO": 999, "REV_AT_EPOCH": 522, "BSTAR": -0.019546, "MEAN_MOTION_DOT": -0.02017279, "MEAN_MOTION_DDOT": 0}, "tle": {"line1": "1 66360U 25254N   25336.16671295 -.02017279  00000+0 -19546-1 0  9990", "line2": "2 66360  53.1590 327.4186 0001351  85.0514  26.0385 15.68907826  5225"}}, "geometry": {"type": "Point", "coordinates": [162.761091421535, -20.59714475163144]}}, {"type": "Feature", "properties": {"norad_id": 66361, "name": "STARLINK-35813", "group": "last-30-days", "lat": -19.120305130075824, "lon": 161.46517423325142, "alt_km": 368.01546217496343, "timestamp": "2025-12-02T08:59:31.502204+00:00", "meta": {"OBJECT_NAME": "STARLINK-35813", "OBJECT_ID": "2025-254P", "EPOCH": "2025-12-02T04:00:03.998880", "MEAN_MOTION": 15.6891732, "ECCENTRICITY": 0.0001345, "INCLINATION": 53.1591, "RA_OF_ASC_NODE": 327.4232, "ARG_OF_PERICENTER": 83.6947, "MEAN_ANOMALY": 25.4711, "EPHEMERIS_TYPE": 0, "CLASSIFICATION_TYPE": "U", "NORAD_CAT_ID": 66361, "ELEMENT_SET_NO": 999, "REV_AT_EPOCH": 522, "BSTAR": -0.019644, "MEAN_MOTION_DOT": -0.02026829, "MEAN_MOTION_DDOT": 0}, "tle": {"line1": "1 66361U 25254P   25336.16671295 -.02026829  00000+0 -19644-1 0  9991", "line2": "2 66361  53.1591 327.4232 0001345  83.6947  25.4711 15.68917320  5222"}}, "geometry": {"type": "Point", "coordinates": [161.46517423325142, -19.120305130075824]}}, {"type": "Feature", "properties": {"norad_id": 66362, "name": "STARLINK-35822", "group": "last-30-days", "lat": -23.514452670371586, "lon": 165.42781639728506, "alt_km": 368.41891220966954, "timestamp": "2025-12-02T08:59:31.502214+00:00", "meta": {"OBJECT_NAME": "STARLINK-35822", "OBJECT_ID": "2025-254Q", "EPOCH": "2025-12-02T04:00:03.998880", "MEAN_MOTION": 15.68910885, "ECCENTRICITY": 0.0001325, "INCLINATION": 53.1591, "RA_OF_ASC_NODE": 327.4114, "ARG_OF_PERICENTER": 87.1569, "MEAN_ANOMALY": 27.7617, "EPHEMERIS_TYPE": 0, "CLASSIFICATION_TYPE": "U", "NORAD_CAT_ID": 66362, "ELEMENT_SET_NO": 999, "REV_AT_EPOCH": 522, "BSTAR": -0.019546, "MEAN_MOTION_DOT": -0.02017466, "MEAN_MOTION_DDOT": 0}, "tle": {"line1": "1 66362U 25254Q   25336.16671295 -.02017466  00000+0 -19546-1 0  9990", "line2": "2 66362  53.1591 327.4114 0001325  87.1569  27.7617 15.68910885  5228"}}, "geometry": {"type": "Point", "coordinates": [165.42781639728506, -23.514452670371586]}}]}